IRIDIUM 155             
1 43573U 18061E   21240.27007094  .00000009  00000-0 -39969-5 0  9997
2 43573  86.3920  69.6861 0001838  75.2287 284.9113 14.34216979161966
IRIDIUM 154             
1 43574U 18061F   21240.25103962  .00000006  00000-0 -48488-5 0  9990
2 43574  86.3924  69.7439 0002260  91.8471 268.2984 14.34217181162016
IRIDIUM 163             
1 43575U 18061G   21240.23200339  .00000009  00000-0 -40213-5 0  9996
2 43575  86.3921  69.7207 0001832 102.8755 257.2646 14.34218217161988
IRIDIUM 156             
1 43576U 18061H   21240.76478737  .00000005  00000-0 -51422-5 0  9994
2 43576  86.3922  69.5028 0001673  90.2115 269.9272 14.34218477162043
IRIDIUM 164             
1 43577U 18061J   21240.60622255  .00000007  00000-0 -45566-5 0  9998
2 43577  86.3923  69.5829 0002155  94.2503 265.8939 14.34216944162070
IRIDIUM 159             
1 43578U 18061K   21240.36522360  .00000009  00000-0 -38150-5 0  9991
2 43578  86.3921  69.6574 0002179  91.6285 268.5161 14.34216841162007
IRIDIUM 180             
1 43922U 19002A   21240.71356388  .00000132  00000-0  40079-4 0  9992
2 43922  86.4015   6.3704 0002916 107.9073 252.2440 14.34218449137708
IRIDIUM 176             
1 43923U 19002B   21240.38824151  .00000326  00000-0  47742-4 0  9993
2 43923  86.6147   6.5395 0002413  91.9995 268.1498 14.72247774141217
IRIDIUM 168             
1 43924U 19002C   21240.70721315  .00000137  00000-0  41753-4 0  9994
2 43924  86.4018   6.4008 0002455  95.9235 264.2241 14.34217398137642
IRIDIUM 173             
1 43925U 19002D   21240.62476213  .00000130  00000-0  39444-4 0  9997
2 43925  86.4014   6.3955 0002342  97.1037 263.0425 14.34217206137625
IRIDIUM 169             
1 43926U 19002E   21240.68166936  .00000151  00000-0  42744-4 0  9992
2 43926  86.4228  37.9556 0005165  19.8798 340.2601 14.38609362138123
IRIDIUM 172             
1 43927U 19002F   21240.61842097  .00000133  00000-0  40500-4 0  9993
2 43927  86.4015   6.4007 0002416  98.2700 261.8770 14.34218550137620
IRIDIUM 175             
1 43928U 19002G   21240.72191423  .00000379  00000-0  56133-4 0  9997
2 43928  86.6150   6.2222 0002359 106.1644 253.9833 14.72252242141256
IRIDIUM 171             
1 43929U 19002H   21240.39009059  .00000106  00000-0  30639-4 0  9995
2 43929  86.4023   6.6075 0002448  95.5931 264.5544 14.34216862137587
IRIDIUM 170             
1 43930U 19002J   21240.39446523  .00000298  00000-0  43350-4 0  9994
2 43930  86.6147   6.5431 0002557  95.6548 264.4961 14.72251271141222
IRIDIUM 167             
1 43931U 19002K   21240.73257497  .00000145  00000-0  44859-4 0  9999
2 43931  86.4015   6.3600 0002783 103.6583 256.4923 14.34219413137630
